OBJECT_NAME,OBJECT_ID,EPOCH,MEAN_MOTION,ECCENTRICITY,INCLINATION,RA_OF_ASC_NODE,ARG_OF_PERICENTER,MEAN_ANOMALY,EPHEMERIS_TYPE,CLASSIFICATION_TYPE,NORAD_CAT_ID,ELEMENT_SET_NO,REV_AT_EPOCH,BSTAR,MEAN_MOTION_DOT,MEAN_MOTION_DDOT
STARLINK-37998,2026-145C,2026-07-17T12:33:07.060032,15.75265280,.0001396,97.2835,45.4822,99.8381,260.3041,0,U,69679,999,354,.13493E-2,.206751E-2,0
STARLINK-37994,2026-145D,2026-07-17T01:54:47.382048,15.75175282,.0001205,97.2836,45.0135,106.6843,253.4555,0,U,69680,999,347,.10127E-2,.153568E-2,0
STARLINK-37992,2026-145E,2026-07-17T12:34:38.551584,15.75255277,.000161,97.2839,45.4807,107.2866,252.8575,0,U,69681,999,354,.11759E-2,.179502E-2,0
STARLINK-37997,2026-145F,2026-07-17T00:00:02.000160,15.75175815,.00011924,97.2838,44.9322,99.5818,174.9569,0,U,69682,999,471,-.22624739E-4,-.3501E-4,0
STARLINK-37990,2026-145G,2026-07-17T12:34:08.074848,15.75254584,.0001614,97.2842,45.4807,112.9047,247.2389,0,U,69683,999,354,.11667E-2,.178067E-2,0
STARLINK-37951,2026-145H,2026-07-17T12:32:36.627360,15.75252956,.0001349,97.2841,45.4823,110.0057,250.1354,0,U,69684,999,354,.12139E-2,.185428E-2,0
STARLINK-37957,2026-145J,2026-07-17T06:25:09.898752,15.75210354,.0001433,97.2839,45.2173,105.2444,254.8980,0,U,69685,999,350,.66715E-3,.100649E-2,0
STARLINK-37968,2026-145K,2026-07-17T12:22:26.791104,15.75224485,.0001651,97.2844,45.4928,95.9194,264.2259,0,U,69686,999,354,.70101E-3,.105895E-2,0
STARLINK-37977,2026-145L,2026-07-17T12:21:25.536096,15.75262015,.0001344,97.2841,45.4935,116.2878,243.8526,0,U,69687,999,354,.12065E-2,.184331E-2,0
STARLINK-37908,2026-145M,2026-07-17T12:18:22.864032,15.75260988,.0001393,97.2839,45.4969,103.7823,256.3598,0,U,69688,999,354,.10267E-2,.156319E-2,0
STARLINK-37979,2026-145N,2026-07-17T12:17:52.349280,15.75255867,.0001363,97.2850,45.4975,105.8012,254.3404,0,U,69689,999,354,.12505E-2,.191161E-2,0
STARLINK-37940,2026-145P,2026-07-17T01:35:59.258976,15.75170038,.0001446,97.2839,45.0319,88.4621,271.6810,0,U,69690,999,347,.67352E-3,.101444E-2,0
STARLINK-37961,2026-145Q,2026-07-17T12:11:46.497984,15.75252633,.0001263,97.2839,45.5018,84.5842,275.5567,0,U,69691,999,354,.11729E-2,.179012E-2,0
STARLINK-37787,2026-145R,2026-07-17T01:28:22.011168,15.75186480,.000149,97.2842,45.0387,93.4920,266.6515,0,U,69692,999,347,.11501E-2,.174945E-2,0
STARLINK-37962,2026-145S,2026-07-17T12:06:11.126016,15.75257721,.0001406,97.2840,45.5080,80.7205,279.4219,0,U,69693,999,354,.12591E-2,.192527E-2,0
STARLINK-37953,2026-145T,2026-07-17T01:29:53.795616,15.75180134,.0002482,97.2841,45.0375,74.7257,285.4283,0,U,69694,999,347,.96263E-3,.14588E-2,0
STARLINK-37926,2026-145U,2026-07-17T12:09:14.067648,15.75242604,.0000951,97.2839,45.5052,73.7381,286.3989,0,U,69695,999,354,.11289E-2,.17208E-2,0
STARLINK-37959,2026-145V,2026-07-17T01:27:20.973024,15.75164016,.000167,97.2834,45.0383,61.2309,298.9124,0,U,69696,999,347,.81329E-3,.122801E-2,0
STARLINK-37976,2026-145W,2026-07-17T13:35:07.533888,15.75260045,.0001428,97.2838,45.5763,70.0260,290.1159,0,U,69697,999,355,.11741E-2,.179256E-2,0
STARLINK-37912,2026-145X,2026-07-17T01:21:45.250272,15.75285434,.00014017,97.2835,45.0455,60.5202,299.6203,0,U,69698,999,347,.14293033E-2,.219535E-2,0
STARLINK-37974,2026-145Y,2026-07-17T01:20:44.812608,15.75254304,.00016353,97.2835,45.0460,78.3038,281.8410,0,U,69699,999,347,.10723297E-2,.163366E-2,0
STARLINK-37955,2026-145Z,2026-07-17T01:17:11.379552,15.75253311,.00013933,97.2833,45.0506,65.2434,294.8976,0,U,69700,999,347,.10008787E-2,.152265E-2,0
STRIX-8,2026-146A,2026-07-17T17:48:02.083392,15.04446520,.0006811,41.9905,358.9863,40.7201,319.4134,0,U,69701,999,316,.16579E-3,.2167E-4,0
ELECTRON R/B,2026-146B,2026-07-17T15:20:44.599776,15.77209422,.0161764,42.0724,347.5721,37.6024,323.6015,0,U,69702,999,329,.87143E-3,.370667E-2,.51383E-4
ELECTRON KICK STAGE R/B,2026-146C,2026-07-17T16:02:07.303776,15.04953473,.000863,41.9888,359.2961,41.1794,318.9683,0,U,69703,999,315,.14486E-3,.1897E-4,0
STARLINK-38055,2026-147A,2026-07-17T13:47:32.186112,15.80898018,.0001135,97.2823,235.0989,86.7339,273.4059,0,U,69704,999,423,.95206E-3,.186879E-2,0
STARLINK-37898,2026-147B,2026-07-17T13:46:20.906112,15.80963522,.000086,97.2830,235.1000,45.6556,314.4783,0,U,69705,999,423,.15837E-2,.316619E-2,0
STARLINK-37970,2026-147C,2026-07-17T13:45:16.138080,15.80946447,.0001312,97.2812,235.1018,55.1550,304.9841,0,U,69706,999,423,.14878E-2,.296503E-2,0
STARLINK-37975,2026-147D,2026-07-17T13:44:11.063328,15.80939588,.000095,97.2824,235.1024,59.1625,300.9737,0,U,69707,999,423,.14099E-2,.280358E-2,0
STARLINK-37972,2026-147E,2026-07-17T13:43:06.345408,15.80885071,.0001382,97.2808,235.1043,81.5756,278.5669,0,U,69708,999,423,.11513E-2,.22694E-2,0
