STARLINK-37998          
1 69679U 26145C   26198.52299838  .00206751  00000+0  13493-2 0  9999
2 69679  97.2835  45.4822 0001396  99.8381 260.3041 15.75265280  3544
STARLINK-37994          
1 69680U 26145D   26198.07971507  .00153568  00000+0  10127-2 0  9999
2 69680  97.2836  45.0135 0001205 106.6843 253.4555 15.75175282  3476
STARLINK-37992          
1 69681U 26145E   26198.52405731  .00179502  00000+0  11759-2 0  9999
2 69681  97.2839  45.4807 0001610 107.2866 252.8575 15.75255277  3548
STARLINK-37997          
1 69682U 26145F   26198.00002315 -.00003501  00000+0 -22625-4 0  9997
2 69682  97.2838  44.9322 0001192  99.5818 174.9569 15.75175815  4715
STARLINK-37990          
1 69683U 26145G   26198.52370457  .00178067  00000+0  11667-2 0  9990
2 69683  97.2842  45.4807 0001614 112.9047 247.2389 15.75254584  3543
STARLINK-37951          
1 69684U 26145H   26198.52264615  .00185428  00000+0  12139-2 0  9993
2 69684  97.2841  45.4823 0001349 110.0057 250.1354 15.75252956  3542
STARLINK-37957          
1 69685U 26145J   26198.26747568  .00100649  00000+0  66715-3 0  9990
2 69685  97.2839  45.2173 0001433 105.2444 254.8980 15.75210354  3504
STARLINK-37968          
1 69686U 26145K   26198.51558786  .00105895  00000+0  70101-3 0  9993
2 69686  97.2844  45.4928 0001651  95.9194 264.2259 15.75224485  3548
STARLINK-37977          
1 69687U 26145L   26198.51487889  .00184331  00000+0  12065-2 0  9995
2 69687  97.2841  45.4935 0001344 116.2878 243.8526 15.75262015  3540
STARLINK-37908          
1 69688U 26145M   26198.51276463  .00156319  00000+0  10267-2 0  9997
2 69688  97.2839  45.4969 0001393 103.7823 256.3598 15.75260988  3545
STARLINK-37979          
1 69689U 26145N   26198.51241145  .00191161  00000+0  12505-2 0  9998
2 69689  97.2850  45.4975 0001363 105.8012 254.3404 15.75255867  3540
STARLINK-37940          
1 69690U 26145P   26198.06665809  .00101444  00000+0  67352-3 0  9993
2 69690  97.2839  45.0319 0001446  88.4621 271.6810 15.75170038  3472
STARLINK-37961          
1 69691U 26145Q   26198.50817706  .00179012  00000+0  11729-2 0  9990
2 69691  97.2839  45.5018 0001263  84.5842 275.5567 15.75252633  3545
STARLINK-37787          
1 69692U 26145R   26198.06136587  .00174945  00000+0  11501-2 0  9991
2 69692  97.2842  45.0387 0001490  93.4920 266.6515 15.75186480  3474
STARLINK-37962          
1 69693U 26145S   26198.50429544  .00192527  00000+0  12591-2 0  9995
2 69693  97.2840  45.5080 0001406  80.7205 279.4219 15.75257721  3548
STARLINK-37953          
1 69694U 26145T   26198.06242819  .00145880  00000+0  96263-3 0  9994
2 69694  97.2841  45.0375 0002482  74.7257 285.4283 15.75180134  3470
STARLINK-37926          
1 69695U 26145U   26198.50641282  .00172080  00000+0  11289-2 0  9997
2 69695  97.2839  45.5052 0000951  73.7381 286.3989 15.75242604  3543
STARLINK-37959          
1 69696U 26145V   26198.06065941  .00122801  00000+0  81329-3 0  9990
2 69696  97.2834  45.0383 0001670  61.2309 298.9124 15.75164016  3474
STARLINK-37976          
1 69697U 26145W   26198.56605942  .00179256  00000+0  11741-2 0  9993
2 69697  97.2838  45.5763 0001428  70.0260 290.1159 15.75260045  3551
STARLINK-37912          
1 69698U 26145X   26198.05677373  .00219535  00000+0  14293-2 0  9995
2 69698  97.2835  45.0455 0001401  60.5202 299.6203 15.75285434  3477
STARLINK-37974          
1 69699U 26145Y   26198.05607422  .00163366  00000+0  10723-2 0  9998
2 69699  97.2835  45.0460 0001635  78.3038 281.8410 15.75254304  3472
STARLINK-37955          
1 69700U 26145Z   26198.05360393  .00152265  00000+0  10009-2 0  9997
2 69700  97.2833  45.0506 0001393  65.2434 294.8976 15.75253311  3478
STRIX-8                 
1 69701U 26146A   26198.74169078  .00002167  00000+0  16579-3 0  9996
2 69701  41.9905 358.9863 0006811  40.7201 319.4134 15.04446520  3161
ELECTRON R/B            
1 69702U 26146B   26198.63940509  .00370667  51383-4  87143-3 0  9994
2 69702  42.0724 347.5721 0161764  37.6024 323.6015 15.77209422  3294
ELECTRON KICK STAGE R/B 
1 69703U 26146C   26198.66814009  .00001897  00000+0  14486-3 0  9994
2 69703  41.9888 359.2961 0008630  41.1794 318.9683 15.04953473  3151
STARLINK-38055          
1 69704U 26147A   26198.57467808  .00186879  00000+0  95206-3 0  9990
2 69704  97.2823 235.0989 0001135  86.7339 273.4059 15.80898018  4238
STARLINK-37898          
1 69705U 26147B   26198.57385308  .00316619  00000+0  15837-2 0  9993
2 69705  97.2830 235.1000 0000860  45.6556 314.4783 15.80963522  4234
STARLINK-37970          
1 69706U 26147C   26198.57310345  .00296503  00000+0  14878-2 0  9996
2 69706  97.2812 235.1018 0001312  55.1550 304.9841 15.80946447  4233
STARLINK-37975          
1 69707U 26147D   26198.57235027  .00280358  00000+0  14099-2 0  9996
2 69707  97.2824 235.1024 0000950  59.1625 300.9737 15.80939588  4236
STARLINK-37972          
1 69708U 26147E   26198.57160122  .00226940  00000+0  11513-2 0  9995
2 69708  97.2808 235.1043 0001382  81.5756 278.5669 15.80885071  4235
